CZ-4B R/B               
1 28059U 03049C   18151.73680483  .00000019  00000-0  16504-4 0  9995
2 28059  98.5224  48.8167 0048947 263.5506 161.2320 14.52528015774274
CZ-2C R/B               
1 28222U 04012C   18152.46554885  .00000517  00000-0  35255-4 0  9992
2 28222  97.5742 108.5508 0049440  69.0771  44.5058 15.09717442773306
SL-16 R/B               
1 28353U 04021B   18151.92946953  .00000093  00000-0  73904-4 0  9990
2 28353  71.0030  67.0830 0004537   4.3641 355.7520 14.14214917721455
CZ-2C R/B               
1 28480U 04046B   18152.19254007  .00000032  00000-0  28023-4 0  9995
2 28480  98.1762 230.6528 0140695 274.4828 137.3629 14.25674299703968
ARIANE 5 R/B            
1 28499U 04049H   18152.21267347  .00000076  00000-0  16763-4 0  9998
2 28499  98.0586 241.8384 0092702 167.4530 245.3750 14.79902469725614
CZ-2D R/B               
1 28738U 05024B   18152.51143238  .00000414  00000-0  28131-4 0  9991
2 28738  97.4550 186.7325 0010674 237.3188 122.7014 15.11539369708579
SUZAKU (ASTRO-EII)      
1 28773U 05025A   18152.37103860  .00000810  00000-0  36107-4 0  9994
2 28773  31.3816 190.6754 0004678 255.0267 104.9862 15.16549965710396
ALOS (DAICHI)           
1 28931U 06002A   18151.80893961  .00000167  00000-0  41536-4 0  9998
2 28931  97.8202 166.2421 0000948  41.7442 318.3831 14.62495630658419
H-2A R/B                
1 28932U 06002B   18151.92555670  .00000452  00000-0  48240-4 0  9990
2 28932  98.2322  94.3757 0088081 248.4936 151.2199 14.91717687669682
AKARI (ASTRO-F)         
1 28939U 06005A   18151.88177489  .00002738  00000-0  81282-4 0  9995
2 28939  98.2103  35.4782 0103034  55.1887 305.8993 15.30737872666402
RESURS-DK 1             
1 29228U 06021A   18152.54990299  .00000113  00000-0  15900-4 0  9990
2 29228  69.9356 289.1013 0004960 203.0374 157.0565 15.02324209660565
GENESIS 1               
1 29252U 06029A   18152.52974398  .00000468  00000-0  33234-4 0  9998
2 29252  64.5034 224.0440 0047300 288.8117  70.7879 15.17310176654824
CZ-4B R/B               
1 29507U 06046C   18151.91139253  .00000677  00000-0  57823-4 0  9997
2 29507  97.7789 164.6819 0046963 149.9998 210.3931 15.00278376633273
CZ-2C R/B               
1 31114U 07010B   18151.67667755 -.00000021  00000-0  93806-5 0  9998
2 31114  98.3639  40.4808 0058595 283.8967  75.5697 14.19272439576930
COSMO-SKYMED 1          
1 31598U 07023A   18152.47334173  .00000226  00000-0  34937-4 0  9997
2 31598  97.8937 336.2573 0001227 100.0047 260.1339 14.82149285594189
GENESIS 2               
1 31789U 07028A   18151.88808018  .00000368  00000-0  29052-4 0  9991
2 31789  64.5043 265.3837 0015167 326.9745  33.0428 15.16555528601787
COSMOS 2428             
1 31792U 07029A   18152.50032061  .00000279  00000-0  17665-3 0  9990
2 31792  70.9637  39.4027 0006496 132.6903 227.4766 14.12525880563396
SL-16 R/B               
1 31793U 07029B   18151.96655064  .00000289  00000-0  17609-3 0  9993
2 31793  70.9763  16.5371 0002133 275.6948 179.2316 14.14399281563993
KORONAS-FOTON           
1 33504U 09003A   18151.90163633  .00000006  00000-0 -14114-5 0  9997
2 33504  82.4436 246.3574 0018864 349.4501  10.6332 15.15170155514172
H-2A R/B                
1 38341U 12025E   18151.84163757  .00000124  00000-0  21976-4 0  9992
2 38341  98.4200 252.9781 0056981 116.0721 244.6372 14.83756152326499
CUSAT 2 & FALCON 9 R/B  
1 39271U 13055G   18151.93411394  .00002870  00000-0  72648-4 0  9994
2 39271  80.9664 346.9713 0615261 247.1528 106.3587 14.41327367242792
ALOS-2                  
1 39766U 14029A   18151.76231986 -.00000294  00000-0 -32435-4 0  9993
2 39766  97.9216 249.0832 0001617  82.8310 277.3104 14.79467931217142
SL-27 R/B               
1 40354U 14084B   18152.19561684  .00001025  00000-0  27188-4 0  9998
2 40354  74.7375 132.6808 0039480 336.8483  23.0948 15.39044919193530
ASTRO-H (HITOMI)        
1 41337U 16012A   18151.92522104  .00000243  00000-0  12823-4 0  9998
2 41337  31.0062  68.6447 0012548 245.2682 114.6647 14.98469332125271
TIANGONG-2              
1 41765U 16057A   18152.47619213  .00003296  00000-0  42006-4 0  9998
2 41765  42.7855  76.5477 0002892 172.9330 159.9229 15.61387260 97527
SHENZHOU-11 MODULE      
1 41868U 16061G   18151.87857244  .00006870  00000-0  54296-4 0  9993
2 41868  42.7956  50.8202 0002314 292.4317 111.5498 15.71984168 87719
